$$SOE
2459580.500000000, A.D. 2022-Jan-01 00:00:00.0000, 2.925211944345627E+08, -3.636939316579205E+08, 5.015578192090778E+07,
2459587.500000000, A.D. 2022-Jan-08 00:00:00.0000, 2.978667878646187E+08, -3.558722719380130E+08, 4.954982915139514E+07,
2459594.500000000, A.D. 2022-Jan-15 00:00:00.0000, 3.030703242675891E+08, -3.478806229163338E+08, 4.892017649507095E+07,
2459601.500000000, A.D. 2022-Jan-22 00:00:00.0000, 3.081267373559192E+08, -3.397198307194164E+08, 4.826670608390649E+07,
2459608.500000000, A.D. 2022-Jan-29 00:00:00.0000, 3.130308388013188E+08, -3.313908417929997E+08, 4.758930602372891E+07,
2459615.500000000, A.D. 2022-Feb-05 00:00:00.0000, 3.177773127430746E+08, -3.228947112386460E+08, 4.688787121882339E+07,
2459622.500000000, A.D. 2022-Feb-12 00:00:00.0000, 3.223607125371463E+08, -3.142326127476320E+08, 4.616230396998659E+07,
2459629.500000000, A.D. 2022-Feb-19 00:00:00.0000, 3.267754584473768E+08, -3.054058477964023E+08, 4.541251466567174E+07,
2459636.500000000, A.D. 2022-Feb-26 00:00:00.0000, 3.310158349971472E+08, -2.964158548620114E+08, 4.463842263228621E+07,
2459643.500000000, A.D. 2022-Mar-05 00:00:00.0000, 3.350759881743219E+08, -2.872642193111217E+08, 4.383995708364584E+07,
2459650.500000000, A.D. 2022-Mar-12 00:00:00.0000, 3.389499227495682E+08, -2.779526840660985E+08, 4.301705814916342E+07,
2459657.500000000, A.D. 2022-Mar-19 00:00:00.0000, 3.426314998226460E+08, -2.684831610591640E+08, 4.216967798216484E+07,
2459664.500000000, A.D. 2022-Mar-26 00:00:00.0000, 3.461144346682603E+08, -2.588577435205566E+08, 4.129778195171915E+07,
2459671.500000000, A.D. 2022-Apr-02 00:00:00.0000, 3.493922950044838E+08, -2.490787191968973E+08, 4.040134991329698E+07,
2459678.500000000, A.D. 2022-Apr-09 00:00:00.0000, 3.524585000181822E+08, -2.391485845347288E+08, 3.948037754001494E+07,
2459685.500000000, A.D. 2022-Apr-16 00:00:00.0000, 3.553063205763837E+08, -2.290700592146290E+08, 3.853487774217652E+07,
2459692.500000000, A.D. 2022-Apr-23 00:00:00.0000, 3.579288794368777E+08, -2.188460999923511E+08, 3.756488238809093E+07,
2459699.500000000, A.D. 2022-Apr-30 00:00:00.0000, 3.603191496783667E+08, -2.084799161330386E+08, 3.657044432227997E+07,
2459706.500000000, A.D. 2022-May-07 00:00:00.0000, 3.624699545117819E+08, -1.979749884487934E+08, 3.555163924638154E+07,
2459713.500000000, A.D. 2022-May-14 00:00:00.0000, 3.643739699737760E+08, -1.873350889340376E+08, 3.450856759145875E+07,
2459720.500000000, A.D. 2022-May-21 00:00:00.0000, 3.660237285966206E+08, -1.765643002698904E+08, 3.344135663840997E+07,
2459727.500000000, A.D. 2022-May-28 00:00:00.0000, 3.674116237132814E+08, -1.656670361814109E+08, 3.235016286017029E+07,
2459734.500000000, A.D. 2022-Jun-04 00:00:00.0000, 3.685299148249201E+08, -1.546480629774786E+08, 3.123517444210732E+07,
2459741.500000000, A.D. 2022-Jun-11 00:00:00.0000, 3.693707343399696E+08, -1.435125222768522E+08, 3.009661397409269E+07,
2459748.500000000, A.D. 2022-Jun-18 00:00:00.0000, 3.699260959051557E+08, -1.322659548991837E+08, 2.893474131783247E+07,
2459755.500000000, A.D. 2022-Jun-25 00:00:00.0000, 3.701879045593144E+08, -1.209143259315135E+08, 2.774985664990596E+07,
2459762.500000000, A.D. 2022-Jul-02 00:00:00.0000, 3.701479690649552E+08, -1.094640509976563E+08, 2.654230366819505E+07,
2459769.500000000, A.D. 2022-Jul-09 00:00:00.0000, 3.697980170459431E+08, -9.792202349549972E+07, 2.531247294428053E+07,
2459776.500000000, A.D. 2022-Jul-16 00:00:00.0000, 3.691297131324681E+08, -8.629564163600338E+07, 2.406080551765303E+07,
2459783.500000000, A.D. 2022-Jul-23 00:00:00.0000, 3.681346781914859E+08, -7.459283509565775E+07, 2.278779694030239E+07,
2459790.500000000, A.D. 2022-Jul-30 00:00:00.0000, 3.668045100165220E+08, -6.282209449415003E+07, 2.149400148654745E+07,
2459797.500000000, A.D. 2022-Aug-06 00:00:00.0000, 3.651308093745009E+08, -5.099250286371500E+07, 2.018003624281955E+07,
2459804.500000000, A.D. 2022-Aug-13 00:00:00.0000, 3.631052108989415E+08, -3.911376612180164E+07, 1.884658536607932E+07,
2459811.500000000, A.D. 2022-Aug-20 00:00:00.0000, 3.607194175837534E+08, -2.719624276548301E+07, 1.749440459725302E+07,
2459818.500000000, A.D. 2022-Aug-27 00:00:00.0000, 3.579652392729562E+08, -1.525097317151994E+07, 1.612432594165645E+07,
2459825.500000000, A.D. 2022-Sep-03 00:00:00.0000, 3.548346357180167E+08, -3.289708204960511E+06, 1.473726245514194E+07,
2459832.500000000, A.D. 2022-Sep-10 00:00:00.0000, 3.513197646051266E+08, 8.675063366972020E+06, 1.333421309204933E+07,
2459839.500000000, A.D. 2022-Sep-17 00:00:00.0000, 3.474130348722764E+08, 2.063008921112186E+07, 1.191626756526006E+07,
2459846.500000000, A.D. 2022-Sep-24 00:00:00.0000, 3.431071656325809E+08, 3.256133010413313E+07, 1.048461115137141E+07,
2459853.500000000, A.D. 2022-Oct-01 00:00:00.0000, 3.383952511491347E+08, 4.445393965224638E+07, 9.040529348055176E+06,
2459860.500000000, A.D. 2022-Oct-08 00:00:00.0000, 3.332708324011706E+08, 5.629224839461718E+07, 7.585412306649342E+06,
2459867.500000000, A.D. 2022-Oct-15 00:00:00.0000, 3.277279743514278E+08, 6.805975440506339E+07, 6.120759128642492E+06,
2459874.500000000, A.D. 2022-Oct-22 00:00:00.0000, 3.217613466775852E+08, 7.973911971787557E+07, 4.648181981930666E+06,
2459881.500000000, A.D. 2022-Oct-29 00:00:00.0000, 3.153663102809211E+08, 9.131217106908287E+07, 3.169409474277396E+06,
2459888.500000000, A.D. 2022-Nov-05 00:00:00.0000, 3.085390113191332E+08, 1.027599088492903E+08, 1.686289179169655E+06,
2459895.500000000, A.D. 2022-Nov-12 00:00:00.0000, 3.012764802622059E+08, 1.140625267457323E+08, 2.007894493744820E+05,
2459902.500000000, A.D. 2022-Nov-19 00:00:00.0000, 2.935767345063066E+08, 1.251994423552420E+08, -1.284999653748117E+06,
2459909.500000000, A.D. 2022-Nov-26 00:00:00.0000, 2.854388838222442E+08, 1.361493395990261E+08, -2.768866541274704E+06,
2459916.500000000, A.D. 2022-Dec-03 00:00:00.0000, 2.768632375551394E+08, 1.468902241091547E+08, -4.248479579890862E+06,
2459923.500000000, A.D. 2022-Dec-10 00:00:00.0000, 2.678514120916759E+08, 1.573994926919287E+08, -5.721390056781195E+06,
2459930.500000000, A.D. 2022-Dec-17 00:00:00.0000, 2.584064368033253E+08, 1.676540177778655E+08, -7.185036802902721E+06,
2459937.500000000, A.D. 2022-Dec-24 00:00:00.0000, 2.485328564754213E+08, 1.776302475115532E+08, -8.636752650901616E+06,
2459944.500000000, A.D. 2022-Dec-31 00:00:00.0000, 2.382368282159573E+08, 1.873043220218181E+08, -1.007377289338260E+07,
2459951.500000000, A.D. 2023-Jan-07 00:00:00.0000, 2.275262103687447E+08, 1.966522069020361E+08, -1.149324578817920E+07,
2459958.500000000, A.D. 2023-Jan-14 00:00:00.0000, 2.164106386693842E+08, 2.056498440306460E+08, -1.289224496409357E+07,
2459965.500000000, A.D. 2023-Jan-21 00:00:00.0000, 2.049015860997344E+08, 2.142733157162902E+08, -1.426778395244552E+07,
2459972.500000000, A.D. 2023-Jan-28 00:00:00.0000, 1.930124072101509E+08, 2.224990205771685E+08, -1.561683316834612E+07,
2459979.500000000, A.D. 2023-Feb-04 00:00:00.0000, 1.807583638794517E+08, 2.303038621877663E+08, -1.693633898118177E+07,
2459986.500000000, A.D. 2023-Feb-11 00:00:00.0000, 1.681566281070925E+08, 2.376654477139651E+08, -1.822324455838771E+07,
2459993.500000000, A.D. 2023-Feb-18 00:00:00.0000, 1.552262595237002E+08, 2.445622925524368E+08, -1.947451230227338E+07,
2460000.500000000, A.D. 2023-Feb-25 00:00:00.0000, 1.419881561291806E+08, 2.509740271200601E+08, -2.068714760085870E+07,
2460007.500000000, A.D. 2023-Mar-04 00:00:00.0000, 1.284649772349902E+08, 2.568816016693001E+08, -2.185822351239438E+07,
2460014.500000000, A.D. 2023-Mar-11 00:00:00.0000, 1.146810382536454E+08, 2.622674846539446E+08, -2.298490593216969E+07,
2460021.500000000, A.D. 2023-Mar-18 00:00:00.0000, 1.006621778196309E+08, 2.671158499437158E+08, -2.406447874038561E+07,
2460028.500000000, A.D. 2023-Mar-25 00:00:00.0000, 8.643559875748228E+07, 2.714127482084720E+08, -2.509436840600523E+07,
2460035.500000000, A.D. 2023-Apr-01 00:00:00.0000, 7.202968553296235E+07, 2.751462584658230E+08, -2.607216749369185E+07,
2460042.500000000, A.D. 2023-Apr-08 00:00:00.0000, 5.747380066412923E+07, 2.783066170425811E+08, -2.699565637325014E+07,
2460049.500000000, A.D. 2023-Apr-15 00:00:00.0000, 4.279806163354690E+07, 2.808863194443638E+08, -2.786282249601552E+07,
2460056.500000000, A.D. 2023-Apr-22 00:00:00.0000, 2.803310460658830E+07, 2.828801894347809E+08, -2.867187719185211E+07,
2460063.500000000, A.D. 2023-Apr-29 00:00:00.0000, 1.320984265435122E+07, 2.842854158464941E+08, -2.942126967319492E+07,
2460070.500000000, A.D. 2023-May-06 00:00:00.0000, -1.640778051600710E+06, 2.851015581305625E+08, -3.010969764890561E+07,
2460077.500000000, A.D. 2023-May-13 00:00:00.0000, -1.648801979829703E+07, 2.853305199732035E+08, -3.073611434073687E+07,
2460084.500000000, A.D. 2023-May-20 00:00:00.0000, -3.130158734258362E+07, 2.849764917018182E+08, -3.129973188501833E+07,
2460091.500000000, A.D. 2023-May-27 00:00:00.0000, -4.605184949629597E+07, 2.840458635723908E+08, -3.180002117277072E+07,
2460098.500000000, A.D. 2023-Jun-03 00:00:00.0000, -6.071004410245462E+07, 2.825471128691688E+08, -3.223670827007334E+07,
2460105.500000000, A.D. 2023-Jun-10 00:00:00.0000, -7.524846295060132E+07, 2.804906683334579E+08, -3.260976765501626E+07,
2460112.500000000, A.D. 2023-Jun-17 00:00:00.0000, -8.964061390383901E+07, 2.778887558381337E+08, -3.291941259639530E+07,
2460119.500000000, A.D. 2023-Jun-24 00:00:00.0000, -1.038613581141192E+08, 2.747552295978230E+08, -3.316608307196184E+07,
2460126.500000000, A.D. 2023-Jul-01 00:00:00.0000, -1.178870211045651E+08, 2.711053940517361E+08, -3.335043159667653E+07,
2460133.500000000, A.D. 2023-Jul-08 00:00:00.0000, -1.316954792172781E+08, 2.669558214602243E+08, -3.347330717917818E+07,
2460140.500000000, A.D. 2023-Jul-15 00:00:00.0000, -1.452662232327590E+08, 2.623241663607028E+08, -3.353573796213233E+07,
2460147.500000000, A.D. 2023-Jul-22 00:00:00.0000, -1.585803967836552E+08, 2.572289794455803E+08, -3.353891337606311E+07,
$$EOE